{
  "norad_id": 48327,
  "name": "STARLINK-2502",
  "history": [
    {
      "epoch": "2026-03-28T11:56:12.691968Z",
      "apogee_km": 478.89190850008436,
      "perigee_km": 476.49099737586494,
      "latitude_deg": 8.840205965083701e-06,
      "longitude_deg": 8.582358243110365,
      "height_km": 478.71448427915607,
      "semi_major_axis_km": 6855.828452937974,
      "eccentricity": 0.0001751,
      "inclination_deg": 53.157,
      "raan_deg": 13.5522,
      "arg_perigee_deg": 96.0377,
      "mean_anomaly_deg": 264.0823,
      "mean_motion_rev_day": 15.29370993
    },
    {
      "epoch": "2026-03-29T02:03:08.108928Z",
      "apogee_km": 478.69094558341385,
      "perigee_km": 476.6040447830801,
      "latitude_deg": -5.34104067451755e-05,
      "longitude_deg": 153.541409087865,
      "height_km": 478.85954835656685,
      "semi_major_axis_km": 6855.784495183247,
      "eccentricity": 0.0001522,
      "inclination_deg": 53.1557,
      "raan_deg": 10.8219,
      "arg_perigee_deg": 107.5711,
      "mean_anomaly_deg": 252.5455,
      "mean_motion_rev_day": 15.29385702
    },
    {
      "epoch": "2026-03-30T04:42:55.827936Z",
      "apogee_km": 478.7101597817191,
      "perigee_km": 476.8247860516676,
      "latitude_deg": -1.0957146475881383e-05,
      "longitude_deg": 107.34309122973337,
      "height_km": 478.8952929561751,
      "semi_major_axis_km": 6855.9044729166935,
      "eccentricity": 0.0001375,
      "inclination_deg": 53.1562,
      "raan_deg": 5.6674,
      "arg_perigee_deg": 104.1579,
      "mean_anomaly_deg": 255.9574,
      "mean_motion_rev_day": 15.29345556
    },
    {
      "epoch": "2026-03-30T04:42:55.828800Z",
      "apogee_km": 478.7100226636303,
      "perigee_km": 476.8249231697573,
      "latitude_deg": -9.167169238192149e-06,
      "longitude_deg": 107.3430889536713,
      "height_km": 478.8952594182689,
      "semi_major_axis_km": 6855.9044729166935,
      "eccentricity": 0.00013748,
      "inclination_deg": 53.1562,
      "raan_deg": 5.6674,
      "arg_perigee_deg": 104.1579,
      "mean_anomaly_deg": 255.9574,
      "mean_motion_rev_day": 15.29345556
    },
    {
      "epoch": "2026-03-30T21:58:05.265408Z",
      "apogee_km": 478.53496023365096,
      "perigee_km": 476.8912016182485,
      "latitude_deg": 2.0691598219844553e-05,
      "longitude_deg": -155.49004714503275,
      "height_km": 478.78041511843156,
      "semi_major_axis_km": 6855.850080925949,
      "eccentricity": 0.00011988,
      "inclination_deg": 53.1554,
      "raan_deg": 2.3321,
      "arg_perigee_deg": 101.9341,
      "mean_anomaly_deg": 258.1794,
      "mean_motion_rev_day": 15.29363756
    },
    {
      "epoch": "2026-03-31T21:29:40.142400Z",
      "apogee_km": 478.8785198903579,
      "perigee_km": 476.67365824091485,
      "latitude_deg": -8.200738728928348e-06,
      "longitude_deg": -153.8961811752879,
      "height_km": 479.13044010182114,
      "semi_major_axis_km": 6855.913089065636,
      "eccentricity": 0.0001608,
      "inclination_deg": 53.1572,
      "raan_deg": 357.7875,
      "arg_perigee_deg": 114.5009,
      "mean_anomaly_deg": 245.6159,
      "mean_motion_rev_day": 15.29342673
    },
    {
      "epoch": "2026-04-01T21:01:15.163680Z",
      "apogee_km": 478.6050498751174,
      "perigee_km": 476.87736856639367,
      "latitude_deg": -5.1235847038348024e-05,
      "longitude_deg": -152.30792871765684,
      "height_km": 478.74449027024497,
      "semi_major_axis_km": 6855.878209220755,
      "eccentricity": 0.000126,
      "inclination_deg": 53.1569,
      "raan_deg": 353.2379,
      "arg_perigee_deg": 97.0375,
      "mean_anomaly_deg": 263.0768,
      "mean_motion_rev_day": 15.29354344
    },
    {
      "epoch": "2026-04-02T03:17:40.237728Z",
      "apogee_km": 478.40722508399085,
      "perigee_km": 477.00657617509205,
      "latitude_deg": -1.7288193259746572e-05,
      "longitude_deg": 112.11567272816691,
      "height_km": 478.570930977682,
      "semi_major_axis_km": 6855.843900629541,
      "eccentricity": 0.00010215,
      "inclination_deg": 53.1559,
      "raan_deg": 352.0236,
      "arg_perigee_deg": 87.2484,
      "mean_anomaly_deg": 272.8633,
      "mean_motion_rev_day": 15.29365824
    },
    {
      "epoch": "2026-04-02T23:41:01.836384Z",
      "apogee_km": 478.3909620361619,
      "perigee_km": 476.9830500182852,
      "latitude_deg": 2.430830323692327e-05,
      "longitude_deg": 161.49674976661376,
      "height_km": 478.5378420911957,
      "semi_major_axis_km": 6855.824006027224,
      "eccentricity": 0.00010268,
      "inclination_deg": 53.1561,
      "raan_deg": 348.082,
      "arg_perigee_deg": 86.1859,
      "mean_anomaly_deg": 273.9259,
      "mean_motion_rev_day": 15.29372481
    },
    {
      "epoch": "2026-04-03T21:38:29.459040Z",
      "apogee_km": 478.4287967044784,
      "perigee_km": 476.95589032831776,
      "latitude_deg": -9.004504463576254e-06,
      "longitude_deg": -173.01373910036327,
      "height_km": 478.44963447250825,
      "semi_major_axis_km": 6855.829343516398,
      "eccentricity": 0.00010742,
      "inclination_deg": 53.1563,
      "raan_deg": 343.8384,
      "arg_perigee_deg": 79.0129,
      "mean_anomaly_deg": 281.0992,
      "mean_motion_rev_day": 15.29370695
    },
    {
      "epoch": "2026-04-05T09:42:53.997696Z",
      "apogee_km": 478.9724105512696,
      "perigee_km": 476.4877072117897,
      "latitude_deg": -1.369787046647505e-05,
      "longitude_deg": -2.5696739829178785,
      "height_km": 478.1681722818736,
      "semi_major_axis_km": 6855.867058881529,
      "eccentricity": 0.00018121,
      "inclination_deg": 53.1574,
      "raan_deg": 336.8662,
      "arg_perigee_deg": 68.3283,
      "mean_anomaly_deg": 291.791,
      "mean_motion_rev_day": 15.29358075
    },
    {
      "epoch": "2026-04-05T15:59:19.832064Z",
      "apogee_km": 479.06677638659403,
      "perigee_km": 476.4398734496981,
      "latitude_deg": -4.931722606730078e-05,
      "longitude_deg": -98.14880176426487,
      "height_km": 478.4652854875245,
      "semi_major_axis_km": 6855.890324918146,
      "eccentricity": 0.00019158,
      "inclination_deg": 53.1566,
      "raan_deg": 335.6524,
      "arg_perigee_deg": 81.9231,
      "mean_anomaly_deg": 278.1986,
      "mean_motion_rev_day": 15.2935029
    },
    {
      "epoch": "2026-04-07T15:02:28.946688Z",
      "apogee_km": 478.9119378127525,
      "perigee_km": 476.5452930023148,
      "latitude_deg": 3.644996317207967e-05,
      "longitude_deg": -94.96469919061046,
      "height_km": 478.3255033608693,
      "semi_major_axis_km": 6855.865615407533,
      "eccentricity": 0.0001726,
      "inclination_deg": 53.1557,
      "raan_deg": 326.5568,
      "arg_perigee_deg": 75.322,
      "mean_anomaly_deg": 284.7972,
      "mean_motion_rev_day": 15.29358558
    },
    {
      "epoch": "2026-04-07T21:18:53.986176Z",
      "apogee_km": 478.78051804600364,
      "perigee_km": 476.66891263767866,
      "latitude_deg": -7.213975102053695e-06,
      "longitude_deg": 169.45918780280712,
      "height_km": 478.4776360139791,
      "semi_major_axis_km": 6855.861715341841,
      "eccentricity": 0.000154,
      "inclination_deg": 53.1565,
      "raan_deg": 325.3427,
      "arg_perigee_deg": 82.1556,
      "mean_anomaly_deg": 277.9619,
      "mean_motion_rev_day": 15.29359863
    },
    {
      "epoch": "2026-04-09T18:47:55.538880Z",
      "apogee_km": 478.68213292238397,
      "perigee_km": 476.77346016302727,
      "latitude_deg": -1.9669529419882517e-05,
      "longitude_deg": -163.45634861210445,
      "height_km": 478.33605117513605,
      "semi_major_axis_km": 6855.864796542705,
      "eccentricity": 0.0001392,
      "inclination_deg": 53.1556,
      "raan_deg": 316.5516,
      "arg_perigee_deg": 72.3756,
      "mean_anomaly_deg": 287.7396,
      "mean_motion_rev_day": 15.29358832
    },
    {
      "epoch": "2026-04-10T07:20:45.761280Z",
      "apogee_km": 478.6092283693579,
      "perigee_km": 476.84864199720323,
      "latitude_deg": 2.797849408524196e-05,
      "longitude_deg": 5.392626889136196,
      "height_km": 478.53697753725424,
      "semi_major_axis_km": 6855.86593518328,
      "eccentricity": 0.0001284,
      "inclination_deg": 53.1558,
      "raan_deg": 314.1251,
      "arg_perigee_deg": 84.1816,
      "mean_anomaly_deg": 275.9331,
      "mean_motion_rev_day": 15.29358451
    },
    {
      "epoch": "2026-04-11T06:52:19.870176Z",
      "apogee_km": 478.531330894215,
      "perigee_km": 476.9023800181576,
      "latitude_deg": 7.112551195115766e-05,
      "longitude_deg": 6.985852247524209,
      "height_km": 478.560902922466,
      "semi_major_axis_km": 6855.853855456186,
      "eccentricity": 0.0001188,
      "inclination_deg": 53.1548,
      "raan_deg": 309.5766,
      "arg_perigee_deg": 86.2515,
      "mean_anomaly_deg": 273.8622,
      "mean_motion_rev_day": 15.29362493
    },
    {
      "epoch": "2026-04-13T05:54:54.906912Z",
      "apogee_km": 477.1778831179563,
      "perigee_km": 475.01756541756185,
      "latitude_deg": 3.121775790778589e-05,
      "longitude_deg": 10.30804457016488,
      "height_km": 476.73130401506023,
      "semi_major_axis_km": 6854.234724267759,
      "eccentricity": 0.00015759,
      "inclination_deg": 53.1581,
      "raan_deg": 300.4768,
      "arg_perigee_deg": 75.8631,
      "mean_anomaly_deg": 284.2545,
      "mean_motion_rev_day": 15.29904432
    },
    {
      "epoch": "2026-04-14T19:32:14.471232Z",
      "apogee_km": 476.30276834063716,
      "perigee_km": 474.33308539465634,
      "latitude_deg": 2.134222098089991e-05,
      "longitude_deg": 157.1532360889149,
      "height_km": 476.3559037887808,
      "semi_major_axis_km": 6853.4549268676465,
      "eccentricity": 0.0001437,
      "inclination_deg": 53.16,
      "raan_deg": 293.1986,
      "arg_perigee_deg": 98.1803,
      "mean_anomaly_deg": 261.9361,
      "mean_motion_rev_day": 15.30165552
    },
    {
      "epoch": "2026-04-15T20:00:01.999008Z",
      "apogee_km": 476.0763864511291,
      "perigee_km": 474.3589357730543,
      "latitude_deg": -29.972062595270522,
      "longitude_deg": -10.083933654966525,
      "height_km": 484.99001731901814,
      "semi_major_axis_km": 6853.354661112091,
      "eccentricity": 0.0001253,
      "inclination_deg": 53.1577,
      "raan_deg": 288.4653,
      "arg_perigee_deg": 80.05,
      "mean_anomaly_deg": 138.2823,
      "mean_motion_rev_day": 15.30199132
    }
  ]
}